[
    {
        "OBJECT_NAME": "SILVERSAT",
        "OBJECT_ID": "1998-067XV",
        "EPOCH": "2026-01-28T21:09:46.226592",
        "MEAN_MOTION": 15.60375041,
        "ECCENTRICITY": 0.00031529,
        "INCLINATION": 51.6294,
        "RA_OF_ASC_NODE": 266.8401,
        "ARG_OF_PERICENTER": 156.3335,
        "MEAN_ANOMALY": 203.7804,
        "EPHEMERIS_TYPE": 0,
        "CLASSIFICATION_TYPE": "U",
        "NORAD_CAT_ID": 66909,
        "ELEMENT_SET_NO": 999,
        "REV_AT_EPOCH": 895,
        "BSTAR": 0.0016306307,
        "MEAN_MOTION_DOT": 0.00138212,
        "MEAN_MOTION_DDOT": 0
    },
    {
        "OBJECT_NAME": "1998-067XW",
        "OBJECT_ID": "1998-067XW",
        "EPOCH": "2026-01-28T19:47:53.839680",
        "MEAN_MOTION": 15.59423345,
        "ECCENTRICITY": 0.00016205,
        "INCLINATION": 51.6271,
        "RA_OF_ASC_NODE": 267.2058,
        "ARG_OF_PERICENTER": 137.9841,
        "MEAN_ANOMALY": 222.1276,
        "EPHEMERIS_TYPE": 0,
        "CLASSIFICATION_TYPE": "U",
        "NORAD_CAT_ID": 66910,
        "ELEMENT_SET_NO": 999,
        "REV_AT_EPOCH": 894,
        "BSTAR": 0.0013634516,
        "MEAN_MOTION_DOT": 0.0011096,
        "MEAN_MOTION_DDOT": 0
    },
    {
        "OBJECT_NAME": "1998-067XX",
        "OBJECT_ID": "1998-067XX",
        "EPOCH": "2026-01-28T20:37:51.464352",
        "MEAN_MOTION": 15.61432474,
        "ECCENTRICITY": 0.00024378,
        "INCLINATION": 51.6268,
        "RA_OF_ASC_NODE": 266.687,
        "ARG_OF_PERICENTER": 171.694,
        "MEAN_ANOMALY": 188.4095,
        "EPHEMERIS_TYPE": 0,
        "CLASSIFICATION_TYPE": "U",
        "NORAD_CAT_ID": 66911,
        "ELEMENT_SET_NO": 999,
        "REV_AT_EPOCH": 894,
        "BSTAR": 0.001581418,
        "MEAN_MOTION_DOT": 0.00139619,
        "MEAN_MOTION_DDOT": 0
    },
    {
        "OBJECT_NAME": "1998-067XY",
        "OBJECT_ID": "1998-067XY",
        "EPOCH": "2026-01-28T20:52:10.826400",
        "MEAN_MOTION": 15.57097036,
        "ECCENTRICITY": 0.00025031,
        "INCLINATION": 51.629,
        "RA_OF_ASC_NODE": 267.5085,
        "ARG_OF_PERICENTER": 116.293,
        "MEAN_ANOMALY": 243.8319,
        "EPHEMERIS_TYPE": 0,
        "CLASSIFICATION_TYPE": "U",
        "NORAD_CAT_ID": 66912,
        "ELEMENT_SET_NO": 999,
        "REV_AT_EPOCH": 893,
        "BSTAR": 0.0011538813,
        "MEAN_MOTION_DOT": 0.00085657,
        "MEAN_MOTION_DDOT": 0
    }
]